{"type": "FeatureCollection", "features": [ {"type": "Feature", "properties": {"norad_id": 34303, "name": "COSMOS 2251 DEB", "group": "cosmos-2251-debris", "lat": -62.53342238451326, "lon": 161.17680337366087, "alt_km": 807.5607173213939, "timestamp": "2025-12-02T08:59:33.108681+00:00", "meta": {"OBJECT_NAME": "COSMOS 2251 DEB", "OBJECT_ID": "1993-036MZ", "EPOCH": "2025-12-01T23:52:24.831840", "MEAN_MOTION": 14.54234359, "ECCENTRICITY": 0.0134897, "INCLINATION": 74.0049, "RA_OF_ASC_NODE": 308.4057, "ARG_OF_PERICENTER": 89.5301, "MEAN_ANOMALY": 328.8717, "EPHEMERIS_TYPE": 0, "CLASSIFICATION_TYPE": "U", "NORAD_CAT_ID": 34303, "ELEMENT_SET_NO": 999, "REV_AT_EPOCH": 87806, "BSTAR": 0.0012599, "MEAN_MOTION_DOT": 6.001e-05, "MEAN_MOTION_DDOT": 0}, "tle": {"line1": "1 34303U 93036MZ  25335.99473185  .00006001  00000+0  12599-2 0  9992", "line2": "2 34303  74.0049 308.4057 0134897  89.5301 328.8717 14.54234359878069"}}, "geometry": {"type": "Point", "coordinates": [161.17680337366087, -62.53342238451326]}}, {"type": "Feature", "properties": {"norad_id": 34304, "name": "COSMOS 2251 DEB", "group": "cosmos-2251-debris", "lat": -68.21073549280484, "lon": 7.535644931172037, "alt_km": 690.4825918000934, "timestamp": "2025-12-02T08:59:33.108691+00:00", "meta": {"OBJECT_NAME": "COSMOS 2251 DEB", "OBJECT_ID": "1993-036NA", "EPOCH": "2025-12-01T20:40:35.505120", "MEAN_MOTION": 14.3769965, "ECCENTRICITY": 0.0128837, "INCLINATION": 74.012, "RA_OF_ASC_NODE": 142.6577, "ARG_OF_PERICENTER": 282.6807, "MEAN_ANOMALY": 198.009, "EPHEMERIS_TYPE": 0, "CLASSIFICATION_TYPE": "U", "NORAD_CAT_ID": 34304, "ELEMENT_SET_NO": 999, "REV_AT_EPOCH": 87140, "BSTAR": 0.0012738, "MEAN_MOTION_DOT": 4.188e-05, "MEAN_MOTION_DDOT": 0}, "tle": {"line1": "1 34304U 93036NA  25335.86152205  .00004188  00000+0  12738-2 0  9995", "line2": "2 34304  74.0120 142.6577 0128837 282.6807 198.0090 14.37699650871401"}}, "geometry": {"type": "Point", "coordinates": [7.535644931172037, -68.21073549280484]}}, {"type": "Feature", "properties": {"norad_id": 34307, "name": "COSMOS 2251 DEB", "group": "cosmos-2251-debris", "lat": -25.54714184283699, "lon": -38.10631239098403, "alt_km": 1349.1465678958484, "timestamp": "2025-12-02T08:59:33.108702+00:00", "meta": {"OBJECT_NAME": "COSMOS 2251 DEB", "OBJECT_ID": "1993-036ND", "EPOCH": "2025-12-02T02:23:23.743104", "MEAN_MOTION": 13.54298757, "ECCENTRICITY": 0.0392425, "INCLINATION": 74.0532, "RA_OF_ASC_NODE": 330.1897, "ARG_OF_PERICENTER": 163.4568, "MEAN_ANOMALY": 268.4475, "EPHEMERIS_TYPE": 0, "CLASSIFICATION_TYPE": "U", "NORAD_CAT_ID": 34307, "ELEMENT_SET_NO": 999, "REV_AT_EPOCH": 82718, "BSTAR": 0.00066384, "MEAN_MOTION_DOT": 7.19e-06, "MEAN_MOTION_DDOT": 0}, "tle": {"line1": "1 34307U 93036ND  25336.09958036  .00000719  00000+0  66384-3 0  9993", "line2": "2 34307  74.0532 330.1897 0392425 163.4568 268.4475 13.54298757827182"}}, "geometry": {"type": "Point", "coordinates": [-38.10631239098403, -25.54714184283699]}}, {"type": "Feature", "properties": {"norad_id": 34313, "name": "COSMOS 2251 DEB", "group": "cosmos-2251-debris", "lat": 33.82520087765563, "lon": 136.12667307055742, "alt_km": 509.1818134435571, "timestamp": "2025-12-02T08:59:33.108713+00:00", "meta": {"OBJECT_NAME": "COSMOS 2251 DEB", "OBJECT_ID": "1993-036NK", "EPOCH": "2025-12-02T02:01:32.216160", "MEAN_MOTION": 15.16545259, "ECCENTRICITY": 0.0010241, "INCLINATION": 73.9722, "RA_OF_ASC_NODE": 327.8402, "ARG_OF_PERICENTER": 95.0395, "MEAN_ANOMALY": 265.197, "EPHEMERIS_TYPE": 0, "CLASSIFICATION_TYPE": "U", "NORAD_CAT_ID": 34313, "ELEMENT_SET_NO": 999, "REV_AT_EPOCH": 88903, "BSTAR": 0.0039344, "MEAN_MOTION_DOT": 0.0007766, "MEAN_MOTION_DDOT": 0}, "tle": {"line1": "1 34313U 93036NK  25336.08440065  .00077660  00000+0  39344-2 0  9991", "line2": "2 34313  73.9722 327.8402 0010241  95.0395 265.1970 15.16545259889032"}}, "geometry": {"type": "Point", "coordinates": [136.12667307055742, 33.82520087765563]}}, {"type": "Feature", "properties": {"norad_id": 34314, "name": "COSMOS 2251 DEB", "group": "cosmos-2251-debris", "lat": -48.930448604566834, "lon": -52.336555123087074, "alt_km": 884.5252533926969, "timestamp": "2025-12-02T08:59:33.108723+00:00", "meta": {"OBJECT_NAME": "COSMOS 2251 DEB", "OBJECT_ID": "1993-036NL", "EPOCH": "2025-12-02T03:00:57.336768", "MEAN_MOTION": 14.17379691, "ECCENTRICITY": 0.0102506, "INCLINATION": 74.0053, "RA_OF_ASC_NODE": 327.3248, "ARG_OF_PERICENTER": 75.7183, "MEAN_ANOMALY": 43.4791, "EPHEMERIS_TYPE": 0, "CLASSIFICATION_TYPE": "U", "NORAD_CAT_ID": 34314, "ELEMENT_SET_NO": 999, "REV_AT_EPOCH": 86507, "BSTAR": 0.00065695, "MEAN_MOTION_DOT": 1.376e-05, "MEAN_MOTION_DDOT": 0}, "tle": {"line1": "1 34314U 93036NL  25336.12566362  .00001376  00000+0  65695-3 0  9996", "line2": "2 34314  74.0053 327.3248 0102506  75.7183  43.4791 14.17379691865072"}}, "geometry": {"type": "Point", "coordinates": [-52.336555123087074, -48.930448604566834]}}, {"type": "Feature", "properties": {"norad_id": 34316, "name": "COSMOS 2251 DEB", "group": "cosmos-2251-debris", "lat": -68.61258015970836, "lon": -135.5093583796494, "alt_km": 606.025608639945, "timestamp": "2025-12-02T08:59:33.108733+00:00", "meta": {"OBJECT_NAME": "COSMOS 2251 DEB", "OBJECT_ID": "1993-036NN", "EPOCH": "2025-12-01T18:58:14.860992", "MEAN_MOTION": 14.91307019, "ECCENTRICITY": 0.0007807, "INCLINATION": 74.0655, "RA_OF_ASC_NODE": 358.815, "ARG_OF_PERICENTER": 89.6135, "MEAN_ANOMALY": 270.5942, "EPHEMERIS_TYPE": 0, "CLASSIFICATION_TYPE": "U", "NORAD_CAT_ID": 34316, "ELEMENT_SET_NO": 999, "REV_AT_EPOCH": 89046, "BSTAR": 0.0015538, "MEAN_MOTION_DOT": 0.0001549, "MEAN_MOTION_DDOT": 0}, "tle": {"line1": "1 34316U 93036NN  25335.79044978  .00015490  00000+0  15538-2 0  9996", "line2": "2 34316  74.0655 358.8150 0007807  89.6135 270.5942 14.91307019890461"}}, "geometry": {"type": "Point", "coordinates": [-135.5093583796494, -68.61258015970836]}}, {"type": "Feature", "properties": {"norad_id": 34317, "name": "COSMOS 2251 DEB", "group": "cosmos-2251-debris", "lat": 33.62487088019069, "lon": 63.875508303444946, "alt_km": 768.7028854534265, "timestamp": "2025-12-02T08:59:33.108743+00:00", "meta": {"OBJECT_NAME": "COSMOS 2251 DEB", "OBJECT_ID": "1993-036NP", "EPOCH": "2025-12-01T23:07:44.398848", "MEAN_MOTION": 13.65108047, "ECCENTRICITY": 0.0336241, "INCLINATION": 73.9249, "RA_OF_ASC_NODE": 53.4967, "ARG_OF_PERICENTER": 44.8619, "MEAN_ANOMALY": 132.0305, "EPHEMERIS_TYPE": 0, "CLASSIFICATION_TYPE": "U", "NORAD_CAT_ID": 34317, "ELEMENT_SET_NO": 999, "REV_AT_EPOCH": 83472, "BSTAR": 0.00046315, "MEAN_MOTION_DOT": 5.31e-06, "MEAN_MOTION_DDOT": 0}, "tle": {"line1": "1 34317U 93036NP  25335.96370832  .00000531  00000+0  46315-3 0  9995", "line2": "2 34317  73.9249  53.4967 0336241  44.8619 132.0305 13.65108047834722"}}, "geometry": {"type": "Point", "coordinates": [63.875508303444946, 33.62487088019069]}}, {"type": "Feature", "properties": {"norad_id": 34321, "name": "COSMOS 2251 DEB", "group": "cosmos-2251-debris", "lat": 24.832244944651023, "lon": -11.781857315554594, "alt_km": 734.4158303245304, "timestamp": "2025-12-02T08:59:33.108753+00:00", "meta": {"OBJECT_NAME": "COSMOS 2251 DEB", "OBJECT_ID": "1993-036NT", "EPOCH": "2025-12-02T00:42:43.041312", "MEAN_MOTION": 14.4998246, "ECCENTRICITY": 0.0015598, "INCLINATION": 74.0279, "RA_OF_ASC_NODE": 176.4821, "ARG_OF_PERICENTER": 306.6606, "MEAN_ANOMALY": 207.1501, "EPHEMERIS_TYPE": 0, "CLASSIFICATION_TYPE": "U", "NORAD_CAT_ID": 34321, "ELEMENT_SET_NO": 999, "REV_AT_EPOCH": 88331, "BSTAR": 0.00058768, "MEAN_MOTION_DOT": 2.251e-05, "MEAN_MOTION_DDOT": 0}, "tle": {"line1": "1 34321U 93036NT  25336.02966483  .00002251  00000+0  58768-3 0  9997", "line2": "2 34321  74.0279 176.4821 0015598 306.6606 207.1501 14.49982460883314"}}, "geometry": {"type": "Point", "coordinates": [-11.781857315554594, 24.832244944651023]}}, {"type": "Feature", "properties": {"norad_id": 34323, "name": "COSMOS 2251 DEB", "group": "cosmos-2251-debris", "lat": -9.454689915332793, "lon": 140.69846860900486, "alt_km": 693.2409192356154, "timestamp": "2025-12-02T08:59:33.108764+00:00", "meta": {"OBJECT_NAME": "COSMOS 2251 DEB", "OBJECT_ID": "1993-036NV", "EPOCH": "2025-12-01T22:11:12.798816", "MEAN_MOTION": 14.73830709, "ECCENTRICITY": 0.0061372, "INCLINATION": 73.952, "RA_OF_ASC_NODE": 144.3284, "ARG_OF_PERICENTER": 190.711, "MEAN_ANOMALY": 291.4502, "EPHEMERIS_TYPE": 0, "CLASSIFICATION_TYPE": "U", "NORAD_CAT_ID": 34323, "ELEMENT_SET_NO": 999, "REV_AT_EPOCH": 88280, "BSTAR": 0.0028683, "MEAN_MOTION_DOT": 0.00019377, "MEAN_MOTION_DDOT": 0}, "tle": {"line1": "1 34323U 93036NV  25335.92445369  .00019377  00000+0  28683-2 0  9991", "line2": "2 34323  73.9520 144.3284 0061372 190.7110 291.4502 14.73830709882808"}}, "geometry": {"type": "Point", "coordinates": [140.69846860900486, -9.454689915332793]}}, {"type": "Feature", "properties": {"norad_id": 34325, "name": "COSMOS 2251 DEB", "group": "cosmos-2251-debris", "lat": -67.61519118007689, "lon": 166.4357662320296, "alt_km": 803.9411360417434, "timestamp": "2025-12-02T08:59:33.108774+00:00", "meta": {"OBJECT_NAME": "COSMOS 2251 DEB", "OBJECT_ID": "1993-036NX", "EPOCH": "2025-12-02T03:15:57.096864", "MEAN_MOTION": 14.04368953, "ECCENTRICITY": 0.0193353, "INCLINATION": 73.8716, "RA_OF_ASC_NODE": 211.4882, "ARG_OF_PERICENTER": 230.898, "MEAN_ANOMALY": 287.1643, "EPHEMERIS_TYPE": 0, "CLASSIFICATION_TYPE": "U", "NORAD_CAT_ID": 34325, "ELEMENT_SET_NO": 999, "REV_AT_EPOCH": 85366, "BSTAR": 0.0018221, "MEAN_MOTION_DOT": 3.401e-05, "MEAN_MOTION_DDOT": 0}, "tle": {"line1": "1 34325U 93036NX  25336.13607751  .00003401  00000+0  18221-2 0  9990", "line2": "2 34325  73.8716 211.4882 0193353 230.8980 287.1643 14.04368953853663"}}, "geometry": {"type": "Point", "coordinates": [166.4357662320296, -67.61519118007689]}}]}